CCSDS_OMM_VERS = 2.0
CREATION_DATE  = 
ORIGINATOR     = 

OBJECT_NAME    = QIANFAN-101
OBJECT_ID      = 2025-233L
CENTER_NAME    = EARTH
REF_FRAME      = TEME
TIME_SYSTEM    = UTC
MEAN_ELEMENT_THEORY = SGP/SGP4

EPOCH          = 2025-11-13T15:05:38.313024
MEAN_MOTION    = 14.26646607
ECCENTRICITY   = .0016576
INCLINATION    = 88.9960
RA_OF_ASC_NODE = 65.3804
ARG_OF_PERICENTER = 126.1772
MEAN_ANOMALY   = 234.0958

EPHEMERIS_TYPE = 0
CLASSIFICATION_TYPE = U
NORAD_CAT_ID   = 66043
ELEMENT_SET_NO = 999
REV_AT_EPOCH   = 389
BSTAR          = .32717E-3
MEAN_MOTION_DOT = .806E-5
MEAN_MOTION_DDOT = 0

CCSDS_OMM_VERS = 2.0
CREATION_DATE  = 
ORIGINATOR     = 

OBJECT_NAME    = QIANFAN-102
OBJECT_ID      = 2025-233M
CENTER_NAME    = EARTH
REF_FRAME      = TEME
TIME_SYSTEM    = UTC
MEAN_ELEMENT_THEORY = SGP/SGP4

EPOCH          = 2025-11-13T13:31:55.604064
MEAN_MOTION    = 14.25342837
ECCENTRICITY   = .0016997
INCLINATION    = 88.9959
RA_OF_ASC_NODE = 65.3897
ARG_OF_PERICENTER = 128.2937
MEAN_ANOMALY   = 231.9787

EPHEMERIS_TYPE = 0
CLASSIFICATION_TYPE = U
NORAD_CAT_ID   = 66044
ELEMENT_SET_NO = 999
REV_AT_EPOCH   = 388
BSTAR          = .67041E-3
MEAN_MOTION_DOT = .1595E-4
MEAN_MOTION_DDOT = 0

CCSDS_OMM_VERS = 2.0
CREATION_DATE  = 
ORIGINATOR     = 

OBJECT_NAME    = QIANFAN-103
OBJECT_ID      = 2025-233N
CENTER_NAME    = EARTH
REF_FRAME      = TEME
TIME_SYSTEM    = UTC
MEAN_ELEMENT_THEORY = SGP/SGP4

EPOCH          = 2025-11-13T15:13:54.175584
MEAN_MOTION    = 14.23689194
ECCENTRICITY   = .0016198
INCLINATION    = 88.9950
RA_OF_ASC_NODE = 65.3817
ARG_OF_PERICENTER = 125.9071
MEAN_ANOMALY   = 234.3627

EPHEMERIS_TYPE = 0
CLASSIFICATION_TYPE = U
NORAD_CAT_ID   = 66045
ELEMENT_SET_NO = 999
REV_AT_EPOCH   = 389
BSTAR          = .52942E-3
MEAN_MOTION_DOT = .1223E-4
MEAN_MOTION_DDOT = 0

CCSDS_OMM_VERS = 2.0
CREATION_DATE  = 
ORIGINATOR     = 

OBJECT_NAME    = QIANFAN-104
OBJECT_ID      = 2025-233P
CENTER_NAME    = EARTH
REF_FRAME      = TEME
TIME_SYSTEM    = UTC
MEAN_ELEMENT_THEORY = SGP/SGP4

EPOCH          = 2025-11-13T13:30:49.539168
MEAN_MOTION    = 14.25373866
ECCENTRICITY   = .0016346
INCLINATION    = 88.9966
RA_OF_ASC_NODE = 65.3904
ARG_OF_PERICENTER = 129.3226
MEAN_ANOMALY   = 230.9419

EPHEMERIS_TYPE = 0
CLASSIFICATION_TYPE = U
NORAD_CAT_ID   = 66046
ELEMENT_SET_NO = 999
REV_AT_EPOCH   = 388
BSTAR          = .66008E-3
MEAN_MOTION_DOT = .1572E-4
MEAN_MOTION_DDOT = 0

CCSDS_OMM_VERS = 2.0
CREATION_DATE  = 
ORIGINATOR     = 

OBJECT_NAME    = QIANFAN-105
OBJECT_ID      = 2025-233Q
CENTER_NAME    = EARTH
REF_FRAME      = TEME
TIME_SYSTEM    = UTC
MEAN_ELEMENT_THEORY = SGP/SGP4

EPOCH          = 2025-11-13T13:30:53.973216
MEAN_MOTION    = 14.24307955
ECCENTRICITY   = .0016409
INCLINATION    = 88.9956
RA_OF_ASC_NODE = 65.3890
ARG_OF_PERICENTER = 128.4057
MEAN_ANOMALY   = 231.8612

EPHEMERIS_TYPE = 0
CLASSIFICATION_TYPE = U
NORAD_CAT_ID   = 66047
ELEMENT_SET_NO = 999
REV_AT_EPOCH   = 388
BSTAR          = .29078E-3
MEAN_MOTION_DOT = .687E-5
MEAN_MOTION_DDOT = 0

CCSDS_OMM_VERS = 2.0
CREATION_DATE  = 
ORIGINATOR     = 

OBJECT_NAME    = QIANFAN-106
OBJECT_ID      = 2025-233R
CENTER_NAME    = EARTH
REF_FRAME      = TEME
TIME_SYSTEM    = UTC
MEAN_ELEMENT_THEORY = SGP/SGP4

EPOCH          = 2025-11-13T13:30:43.636320
MEAN_MOTION    = 14.24563335
ECCENTRICITY   = .0016361
INCLINATION    = 88.9956
RA_OF_ASC_NODE = 65.3885
ARG_OF_PERICENTER = 128.5197
MEAN_ANOMALY   = 231.7465

EPHEMERIS_TYPE = 0
CLASSIFICATION_TYPE = U
NORAD_CAT_ID   = 66048
ELEMENT_SET_NO = 999
REV_AT_EPOCH   = 388
BSTAR          = .61878E-3
MEAN_MOTION_DOT = .1451E-4
MEAN_MOTION_DDOT = 0

CCSDS_OMM_VERS = 2.0
CREATION_DATE  = 
ORIGINATOR     = 

OBJECT_NAME    = QIANFAN-107
OBJECT_ID      = 2025-233S
CENTER_NAME    = EARTH
REF_FRAME      = TEME
TIME_SYSTEM    = UTC
MEAN_ELEMENT_THEORY = SGP/SGP4

EPOCH          = 2025-11-13T13:29:40.430400
MEAN_MOTION    = 14.25125428
ECCENTRICITY   = .0017076
INCLINATION    = 88.9958
RA_OF_ASC_NODE = 65.3879
ARG_OF_PERICENTER = 127.4003
MEAN_ANOMALY   = 232.8747

EPHEMERIS_TYPE = 0
CLASSIFICATION_TYPE = U
NORAD_CAT_ID   = 66049
ELEMENT_SET_NO = 999
REV_AT_EPOCH   = 388
BSTAR          = .63446E-3
MEAN_MOTION_DOT = .1504E-4
MEAN_MOTION_DDOT = 0

CCSDS_OMM_VERS = 2.0
CREATION_DATE  = 
ORIGINATOR     = 

OBJECT_NAME    = QIANFAN-108
OBJECT_ID      = 2025-233T
CENTER_NAME    = EARTH
REF_FRAME      = TEME
TIME_SYSTEM    = UTC
MEAN_ELEMENT_THEORY = SGP/SGP4

EPOCH          = 2025-11-13T15:11:18.557088
MEAN_MOTION    = 14.24225409
ECCENTRICITY   = .0017128
INCLINATION    = 88.9963
RA_OF_ASC_NODE = 65.3822
ARG_OF_PERICENTER = 127.5768
MEAN_ANOMALY   = 232.6983

EPHEMERIS_TYPE = 0
CLASSIFICATION_TYPE = U
NORAD_CAT_ID   = 66050
ELEMENT_SET_NO = 999
REV_AT_EPOCH   = 389
BSTAR          = .42579E-3
MEAN_MOTION_DOT = .997E-5
MEAN_MOTION_DDOT = 0

CCSDS_OMM_VERS = 2.0
CREATION_DATE  = 
ORIGINATOR     = 

OBJECT_NAME    = CZ-6A R/B
OBJECT_ID      = 2025-233U
CENTER_NAME    = EARTH
REF_FRAME      = TEME
TIME_SYSTEM    = UTC
MEAN_ELEMENT_THEORY = SGP/SGP4

EPOCH          = 2025-11-13T16:16:54.930720
MEAN_MOTION    = 14.57025080
ECCENTRICITY   = .0084795
INCLINATION    = 89.0298
RA_OF_ASC_NODE = 65.2896
ARG_OF_PERICENTER = 26.5475
MEAN_ANOMALY   = 334.0040

EPHEMERIS_TYPE = 0
CLASSIFICATION_TYPE = U
NORAD_CAT_ID   = 66051
ELEMENT_SET_NO = 999
REV_AT_EPOCH   = 398
BSTAR          = .17892E-3
MEAN_MOTION_DOT = .863E-5
MEAN_MOTION_DDOT = 0

CCSDS_OMM_VERS = 2.0
CREATION_DATE  = 
ORIGINATOR     = 

OBJECT_NAME    = 2025-234A
OBJECT_ID      = 2025-234A
CENTER_NAME    = EARTH
REF_FRAME      = TEME
TIME_SYSTEM    = UTC
MEAN_ELEMENT_THEORY = SGP/SGP4

EPOCH          = 2025-11-13T15:09:59.718816
MEAN_MOTION    = 15.23249461
ECCENTRICITY   = .0014611
INCLINATION    = 97.4604
RA_OF_ASC_NODE = 23.1083
ARG_OF_PERICENTER = 196.2513
MEAN_ANOMALY   = 163.8257

EPHEMERIS_TYPE = 0
CLASSIFICATION_TYPE = U
NORAD_CAT_ID   = 66053
ELEMENT_SET_NO = 999
REV_AT_EPOCH   = 388
BSTAR          = .23871E-2
MEAN_MOTION_DOT = .57022E-3
MEAN_MOTION_DDOT = 0

CCSDS_OMM_VERS = 2.0
CREATION_DATE  = 
ORIGINATOR     = 

OBJECT_NAME    = 2025-234B
OBJECT_ID      = 2025-234B
CENTER_NAME    = EARTH
REF_FRAME      = TEME
TIME_SYSTEM    = UTC
MEAN_ELEMENT_THEORY = SGP/SGP4

EPOCH          = 2025-11-13T15:33:53.595936
MEAN_MOTION    = 15.21401903
ECCENTRICITY   = .0014763
INCLINATION    = 97.5034
RA_OF_ASC_NODE = 23.2232
ARG_OF_PERICENTER = 187.0049
MEAN_ANOMALY   = 173.0982

EPHEMERIS_TYPE = 0
CLASSIFICATION_TYPE = U
NORAD_CAT_ID   = 66054
ELEMENT_SET_NO = 999
REV_AT_EPOCH   = 388
BSTAR          = .63272E-3
MEAN_MOTION_DOT = .14182E-3
MEAN_MOTION_DDOT = 0

CCSDS_OMM_VERS = 2.0
CREATION_DATE  = 
ORIGINATOR     = 

OBJECT_NAME    = 2025-234C
OBJECT_ID      = 2025-234C
CENTER_NAME    = EARTH
REF_FRAME      = TEME
TIME_SYSTEM    = UTC
MEAN_ELEMENT_THEORY = SGP/SGP4

EPOCH          = 2025-11-13T15:30:51.743808
MEAN_MOTION    = 15.21526971
ECCENTRICITY   = .0015371
INCLINATION    = 97.4556
RA_OF_ASC_NODE = 23.0729
ARG_OF_PERICENTER = 189.0296
MEAN_ANOMALY   = 171.0665

EPHEMERIS_TYPE = 0
CLASSIFICATION_TYPE = U
NORAD_CAT_ID   = 66055
ELEMENT_SET_NO = 999
REV_AT_EPOCH   = 388
BSTAR          = .60062E-3
MEAN_MOTION_DOT = .13511E-3
MEAN_MOTION_DDOT = 0

